{"type": "FeatureCollection", "features": [ {"type": "Feature", "properties": {"norad_id": 33618, "name": "FENGYUN 1C DEB", "group": "fengyun-1c-debris", "lat": -21.436941406792613, "lon": 83.56621173578993, "alt_km": 784.7614683762076, "timestamp": "2025-12-18T15:47:11.509895+00:00", "meta": {"OBJECT_NAME": "FENGYUN 1C DEB", "OBJECT_ID": "1999-025DDB", "EPOCH": "2025-12-18T01:06:23.096160", "MEAN_MOTION": 14.62181337, "ECCENTRICITY": 0.01650544, "INCLINATION": 98.531, "RA_OF_ASC_NODE": 79.5558, "ARG_OF_PERICENTER": 124.0513, "MEAN_ANOMALY": 237.6483, "EPHEMERIS_TYPE": 0, "CLASSIFICATION_TYPE": "U", "NORAD_CAT_ID": 33618, "ELEMENT_SET_NO": 999, "REV_AT_EPOCH": 96861, "BSTAR": 0.00062261666, "MEAN_MOTION_DOT": 3.754e-05, "MEAN_MOTION_DDOT": 0}, "tle": {"line1": "1 33618U 99025DDB 25352.04610065  .00003754  00000+0  62262-3 0  9994", "line2": "2 33618  98.5310  79.5558 0165054 124.0513 237.6483 14.62181337968614"}}, "geometry": {"type": "Point", "coordinates": [83.56621173578993, -21.436941406792613]}}, {"type": "Feature", "properties": {"norad_id": 33619, "name": "FENGYUN 1C DEB", "group": "fengyun-1c-debris", "lat": -12.147674415036768, "lon": 63.96542545630075, "alt_km": 810.5889736377258, "timestamp": "2025-12-18T15:47:11.509906+00:00", "meta": {"OBJECT_NAME": "FENGYUN 1C DEB", "OBJECT_ID": "1999-025DDC", "EPOCH": "2025-12-17T11:02:44.017152", "MEAN_MOTION": 14.17531314, "ECCENTRICITY": 0.00505218, "INCLINATION": 98.8624, "RA_OF_ASC_NODE": 60.8467, "ARG_OF_PERICENTER": 32.5457, "MEAN_ANOMALY": 327.8816, "EPHEMERIS_TYPE": 0, "CLASSIFICATION_TYPE": "U", "NORAD_CAT_ID": 33619, "ELEMENT_SET_NO": 999, "REV_AT_EPOCH": 63691, "BSTAR": 0.0010023854, "MEAN_MOTION_DOT": 2.016e-05, "MEAN_MOTION_DDOT": 0}, "tle": {"line1": "1 33619U 99025DDC 25351.46023168  .00002016  00000+0  10024-2 0  9990", "line2": "2 33619  98.8624  60.8467 0050521  32.5457 327.8816 14.17531314636911"}}, "geometry": {"type": "Point", "coordinates": [63.96542545630075, -12.147674415036768]}}, {"type": "Feature", "properties": {"norad_id": 33621, "name": "FENGYUN 1C DEB", "group": "fengyun-1c-debris", "lat": -59.95180972377815, "lon": -142.73393724155352, "alt_km": 643.0489143019086, "timestamp": "2025-12-18T15:47:11.509916+00:00", "meta": {"OBJECT_NAME": "FENGYUN 1C DEB", "OBJECT_ID": "1999-025DDE", "EPOCH": "2025-12-10T20:17:14.702784", "MEAN_MOTION": 14.19482835, "ECCENTRICITY": 0.02846988, "INCLINATION": 98.1391, "RA_OF_ASC_NODE": 195.7496, "ARG_OF_PERICENTER": 300.0128, "MEAN_ANOMALY": 57.3079, "EPHEMERIS_TYPE": 0, "CLASSIFICATION_TYPE": "U", "NORAD_CAT_ID": 33621, "ELEMENT_SET_NO": 999, "REV_AT_EPOCH": 64217, "BSTAR": 0.00099524636, "MEAN_MOTION_DOT": 3.099e-05, "MEAN_MOTION_DDOT": 0}, "tle": {"line1": "1 33621U 99025DDE 25344.84530906  .00003099  00000+0  99525-3 0  9996", "line2": "2 33621  98.1391 195.7496 0284698 300.0128  57.3079 14.19482835642176"}}, "geometry": {"type": "Point", "coordinates": [-142.73393724155352, -59.95180972377815]}}, {"type": "Feature", "properties": {"norad_id": 33625, "name": "FENGYUN 1C DEB", "group": "fengyun-1c-debris", "lat": -18.39581912238082, "lon": 106.45379467885628, "alt_km": 806.6272140109104, "timestamp": "2025-12-18T15:47:11.509926+00:00", "meta": {"OBJECT_NAME": "FENGYUN 1C DEB", "OBJECT_ID": "1999-025DDJ", "EPOCH": "2025-12-17T18:30:25.862688", "MEAN_MOTION": 14.61094935, "ECCENTRICITY": 0.02257102, "INCLINATION": 98.6203, "RA_OF_ASC_NODE": 102.638, "ARG_OF_PERICENTER": 119.7403, "MEAN_ANOMALY": 242.6462, "EPHEMERIS_TYPE": 0, "CLASSIFICATION_TYPE": "U", "NORAD_CAT_ID": 33625, "ELEMENT_SET_NO": 999, "REV_AT_EPOCH": 61464, "BSTAR": 0.00092873472, "MEAN_MOTION_DOT": 6.506e-05, "MEAN_MOTION_DDOT": 0}, "tle": {"line1": "1 33625U 99025DDJ 25351.77113267  .00006506  00000+0  92873-3 0  9992", "line2": "2 33625  98.6203 102.6380 0225710 119.7403 242.6462 14.61094935614640"}}, "geometry": {"type": "Point", "coordinates": [106.45379467885628, -18.39581912238082]}}, {"type": "Feature", "properties": {"norad_id": 33630, "name": "FENGYUN 1C DEB", "group": "fengyun-1c-debris", "lat": -65.09707756605002, "lon": 117.73808304823203, "alt_km": 884.3409545189479, "timestamp": "2025-12-18T15:47:11.509936+00:00", "meta": {"OBJECT_NAME": "FENGYUN 1C DEB", "OBJECT_ID": "1999-025DDP", "EPOCH": "2025-12-16T13:17:07.494144", "MEAN_MOTION": 14.17726795, "ECCENTRICITY": 0.01350341, "INCLINATION": 98.616, "RA_OF_ASC_NODE": 96.6346, "ARG_OF_PERICENTER": 57.1725, "MEAN_ANOMALY": 304.237, "EPHEMERIS_TYPE": 0, "CLASSIFICATION_TYPE": "U", "NORAD_CAT_ID": 33630, "ELEMENT_SET_NO": 999, "REV_AT_EPOCH": 64465, "BSTAR": 0.00032109765, "MEAN_MOTION_DOT": 6.74e-06, "MEAN_MOTION_DDOT": 0}, "tle": {"line1": "1 33630U 99025DDP 25350.55355896  .00000674  00000+0  32110-3 0  9997", "line2": "2 33630  98.6160  96.6346 0135034  57.1725 304.2370 14.17726795644657"}}, "geometry": {"type": "Point", "coordinates": [117.73808304823203, -65.09707756605002]}}, {"type": "Feature", "properties": {"norad_id": 33633, "name": "FENGYUN 1C DEB", "group": "fengyun-1c-debris", "lat": 10.364162678032812, "lon": 85.38734617024126, "alt_km": 861.6125429952735, "timestamp": "2025-12-18T15:47:11.509946+00:00", "meta": {"OBJECT_NAME": "FENGYUN 1C DEB", "OBJECT_ID": "1999-025DDS", "EPOCH": "2025-12-14T05:17:20.235840", "MEAN_MOTION": 14.19354186, "ECCENTRICITY": 0.00834952, "INCLINATION": 99.0564, "RA_OF_ASC_NODE": 82.5239, "ARG_OF_PERICENTER": 146.6641, "MEAN_ANOMALY": 243.3221, "EPHEMERIS_TYPE": 0, "CLASSIFICATION_TYPE": "U", "NORAD_CAT_ID": 33633, "ELEMENT_SET_NO": 999, "REV_AT_EPOCH": 90732, "BSTAR": 0.0025593474, "MEAN_MOTION_DOT": 5.525e-05, "MEAN_MOTION_DDOT": 0}, "tle": {"line1": "1 33633U 99025DDS 25348.22037310  .00005525  00000+0  25593-2 0  9995", "line2": "2 33633  99.0564  82.5239 0083495 146.6641 243.3221 14.19354186907329"}}, "geometry": {"type": "Point", "coordinates": [85.38734617024126, 10.364162678032812]}}, {"type": "Feature", "properties": {"norad_id": 33637, "name": "FENGYUN 1C DEB", "group": "fengyun-1c-debris", "lat": -79.14055583308591, "lon": 166.39791736476013, "alt_km": 813.6991977102189, "timestamp": "2025-12-18T15:47:11.509956+00:00", "meta": {"OBJECT_NAME": "FENGYUN 1C DEB", "OBJECT_ID": "1999-025DDW", "EPOCH": "2025-12-13T20:55:05.593728", "MEAN_MOTION": 14.36759768, "ECCENTRICITY": 0.00830796, "INCLINATION": 98.4929, "RA_OF_ASC_NODE": 32.8364, "ARG_OF_PERICENTER": 148.1698, "MEAN_ANOMALY": 212.4548, "EPHEMERIS_TYPE": 0, "CLASSIFICATION_TYPE": "U", "NORAD_CAT_ID": 33637, "ELEMENT_SET_NO": 999, "REV_AT_EPOCH": 64854, "BSTAR": 0.0014619922, "MEAN_MOTION_DOT": 4.446e-05, "MEAN_MOTION_DDOT": 0}, "tle": {"line1": "1 33637U 99025DDW 25347.87159252  .00004446  00000+0  14620-2 0  9999", "line2": "2 33637  98.4929  32.8364 0083079 148.1698 212.4548 14.36759768648544"}}, "geometry": {"type": "Point", "coordinates": [166.39791736476013, -79.14055583308591]}}, {"type": "Feature", "properties": {"norad_id": 33638, "name": "FENGYUN 1C DEB", "group": "fengyun-1c-debris", "lat": 40.119208247630446, "lon": -124.56705577333275, "alt_km": 1153.7321011249269, "timestamp": "2025-12-18T15:47:11.509966+00:00", "meta": {"OBJECT_NAME": "FENGYUN 1C DEB", "OBJECT_ID": "1999-025DDX", "EPOCH": "2025-12-16T10:58:25.363200", "MEAN_MOTION": 13.69321197, "ECCENTRICITY": 0.02644016, "INCLINATION": 98.4653, "RA_OF_ASC_NODE": 240.7052, "ARG_OF_PERICENTER": 263.1375, "MEAN_ANOMALY": 93.9631, "EPHEMERIS_TYPE": 0, "CLASSIFICATION_TYPE": "U", "NORAD_CAT_ID": 33638, "ELEMENT_SET_NO": 999, "REV_AT_EPOCH": 60966, "BSTAR": 0.00088523672, "MEAN_MOTION_DOT": 9.44e-06, "MEAN_MOTION_DDOT": 0}, "tle": {"line1": "1 33638U 99025DDX 25350.45723800  .00000944  00000+0  88524-3 0  9998", "line2": "2 33638  98.4653 240.7052 0264401 263.1375  93.9631 13.69321197609664"}}, "geometry": {"type": "Point", "coordinates": [-124.56705577333275, 40.119208247630446]}}, {"type": "Feature", "properties": {"norad_id": 33639, "name": "FENGYUN 1C DEB", "group": "fengyun-1c-debris", "lat": 53.902994267081745, "lon": 71.60205166487505, "alt_km": 780.3157700308784, "timestamp": "2025-12-18T15:47:11.509977+00:00", "meta": {"OBJECT_NAME": "FENGYUN 1C DEB", "OBJECT_ID": "1999-025DDY", "EPOCH": "2025-12-14T11:30:34.684704", "MEAN_MOTION": 14.40475035, "ECCENTRICITY": 0.00499213, "INCLINATION": 98.7123, "RA_OF_ASC_NODE": 79.4896, "ARG_OF_PERICENTER": 283.4225, "MEAN_ANOMALY": 76.1402, "EPHEMERIS_TYPE": 0, "CLASSIFICATION_TYPE": "U", "NORAD_CAT_ID": 33639, "ELEMENT_SET_NO": 999, "REV_AT_EPOCH": 60607, "BSTAR": 0.0023798225, "MEAN_MOTION_DOT": 7.641e-05, "MEAN_MOTION_DDOT": 0}, "tle": {"line1": "1 33639U 99025DDY 25348.47956811  .00007641  00000+0  23798-2 0  9990", "line2": "2 33639  98.7123  79.4896 0049921 283.4225  76.1402 14.40475035606072"}}, "geometry": {"type": "Point", "coordinates": [71.60205166487505, 53.902994267081745]}}, {"type": "Feature", "properties": {"norad_id": 33640, "name": "FENGYUN 1C DEB", "group": "fengyun-1c-debris", "lat": -3.1613580354441493, "lon": -63.847300794409314, "alt_km": 795.2580789409394, "timestamp": "2025-12-18T15:47:11.509987+00:00", "meta": {"OBJECT_NAME": "FENGYUN 1C DEB", "OBJECT_ID": "1999-025DDZ", "EPOCH": "2025-12-16T15:38:15.571104", "MEAN_MOTION": 14.45908505, "ECCENTRICITY": 0.00909711, "INCLINATION": 98.8411, "RA_OF_ASC_NODE": 293.5698, "ARG_OF_PERICENTER": 147.9721, "MEAN_ANOMALY": 212.7043, "EPHEMERIS_TYPE": 0, "CLASSIFICATION_TYPE": "U", "NORAD_CAT_ID": 33640, "ELEMENT_SET_NO": 999, "REV_AT_EPOCH": 92399, "BSTAR": 0.00035805044, "MEAN_MOTION_DOT": 1.289e-05, "MEAN_MOTION_DDOT": 0}, "tle": {"line1": "1 33640U 99025DDZ 25350.65156911  .00001289  00000+0  35805-3 0  9993", "line2": "2 33640  98.8411 293.5698 0090971 147.9721 212.7043 14.45908505923990"}}, "geometry": {"type": "Point", "coordinates": [-63.847300794409314, -3.1613580354441493]}}]}